{"type":"FeatureCollection","features":[{"type":"Feature","properties":{"adm1_pcode":"PK1","adm1_name":"Azad Kashmir","area_sqkm":11421.97948865},"geometry":{"type":"Polygon","coordinates":[[[74.5098,35.0992],[74.4395,35.1341],[74.3751,35.0613],[74.2995,35.0674],[74.2539,35.039],[74.2062,35.0924],[74.1607,35.0804],[74.1159,35.1231],[74.0822,35.1056],[74.0603,35.0694],[74.0895,35.0241],[74.0558,34.9961],[74.0516,34.9556],[73.9864,34.8705],[73.9078,34.8267],[73.8339,34.8269],[73.7397,34.7872],[73.698,34.7178],[73.6636,34.6944],[73.6744,34.6458],[73.6411,34.5669],[73.5817,34.5878],[73.4483,34.563],[73.398,34.3722],[73.4142,34.3161],[73.4647,34.2753],[73.5164,34.0011],[73.5836,33.8944],[73.5667,33.7889],[73.5925,33.7469],[73.5989,33.6986],[73.5739,33.6644],[73.5689,33.6242],[73.6269,33.5689],[73.6317,33.5264],[73.6083,33.4919],[73.6266,33.4597],[73.5972,33.4392],[73.5705,33.3722],[73.5847,33.3392],[73.6072,33.3333],[73.5986,33.3181],[73.6232,33.244],[73.6428,33.2323],[73.6412,33.2161],[73.6671,33.2153],[73.6699,33.1916],[73.6686,33.158],[73.6266,33.128],[73.6283,33.0947],[73.7503,33.053],[73.8058,33.0089],[73.9211,33.0342],[74.0028,32.9517],[74.3328,32.8156],[74.3506,32.7822],[74.3872,32.7692],[74.4617,32.7917],[74.4139,32.9039],[74.318,32.9197],[74.3532,32.9831],[74.3498,33.0163],[74.2832,33.0432],[74.1993,33.0469],[74.1763,33.1072],[74.1488,33.1339],[74.0828,33.1807],[74.0182,33.1932],[74.0113,33.2188],[74.0244,33.2625],[74.103,33.2705],[74.1701,33.3462],[74.1871,33.4555],[74.0963,33.5698],[74.0284,33.5747],[73.9562,33.7203],[74.0657,33.8201],[74.1433,33.8301],[74.2197,33.8672],[74.2611,33.9248],[74.2487,34.0138],[74.2147,34.0386],[74.1237,34.0552],[74.0061,34.0224],[73.8982,34.0328],[73.8857,34.0751],[73.9171,34.1421],[73.9766,34.2118],[73.9762,34.2648],[73.8994,34.3598],[73.8418,34.3383],[73.7632,34.3596],[73.777,34.4163],[73.8987,34.4958],[73.8867,34.515],[73.8953,34.5467],[73.9481,34.5731],[73.9274,34.6461],[73.9602,34.6967],[74.0129,34.7099],[74.0491,34.685],[74.1418,34.6912],[74.2798,34.7683],[74.3073,34.8003],[74.3413,34.7897],[74.3755,34.8034],[74.5615,34.7744],[74.6713,34.7007],[74.8649,34.6799],[74.7824,34.764],[74.7645,34.8129],[74.7228,34.8609],[74.7057,34.8576],[74.6642,34.9074],[74.6,34.9193],[74.566,34.9075],[74.5647,34.9731],[74.5835,35.0016],[74.5285,35.036],[74.537,35.0656],[74.5098,35.0992]]]}},{"type":"Feature","properties":{"adm1_pcode":"PK2","adm1_name":"Balochistan","area_sqkm":346723.56140254},"geometry":{"type":"MultiPolygon","coordinates":[[[[69.854,32.0981],[69.6795,32.0729],[69.6292,32.0072],[69.5488,31.9561],[69.5188,31.9761],[69.3308,31.9602],[69.3176,31.9281],[69.1976,31.8484],[69.1179,31.7033],[69.0315,31.6502],[69.021,31.6267],[68.9492,31.6458],[68.9169,31.6047],[68.8483,31.5974],[68.8049,31.61],[68.7735,31.661],[68.717,31.6966],[68.7018,31.7699],[68.6322,31.7783],[68.5701,31.828],[68.4331,31.7632],[68.4637,31.7481],[68.582,31.7503],[68.5635,31.7198],[68.5371,31.714],[68.5009,31.7383],[68.4219,31.7572],[68.2866,31.757],[68.251,31.7853],[68.2594,31.8015],[68.1775,31.8145],[68.1689,31.8342],[68.0641,31.6994],[67.9698,31.6396],[67.8687,31.6288],[67.7131,31.5206],[67.554,31.5288],[67.595,31.4705],[67.5976,31.4268],[67.6338,31.4007],[67.7409,31.4148],[67.7713,31.3999],[67.7898,31.3566],[67.7628,31.3276],[67.4064,31.2197],[67.2715,31.2058],[67.1833,31.2249],[67.1663,31.2434],[67.0403,31.2354],[67.0219,31.255],[67.0477,31.2753],[67.0445,31.3038],[66.9691,31.3126],[66.8566,31.2785],[66.7929,31.2131],[66.7311,31.2125],[66.6862,31.1153],[66.6832,31.0746],[66.5796,30.9885],[66.3866,30.9339],[66.2811,30.5693],[66.2979,30.5093],[66.3398,30.4793],[66.3544,30.4218],[66.3347,30.3835],[66.3166,30.2429],[66.2384,30.0841],[66.2417,30.0551],[66.3615,29.972],[66.3189,29.9127],[66.2306,29.8467],[65.0971,29.5428],[65.0286,29.5343],[64.9558,29.5536],[64.6319,29.5811],[64.4876,29.5718],[64.4118,29.5451],[64.2794,29.5281],[64.208,29.4944],[64.1523,29.4496],[64.1311,29.3919],[64.1053,29.3775],[64.0324,29.4177],[63.5908,29.4904],[62.4558,29.389],[60.8786,29.8618],[61.1926,29.5025],[61.3726,29.3487],[61.3577,29.2828],[61.3835,29.2215],[61.4287,29.1938],[61.4158,29.1356],[61.4705,29.1139],[61.5032,29.0564],[61.5043,29.0075],[61.681,28.7706],[61.8042,28.6402],[62.0433,28.5079],[62.2963,28.4635],[62.4397,28.4071],[62.5923,28.2551],[62.7919,28.2771],[62.7966,28.2089],[62.7682,28.0324],[62.8198,27.805],[62.8554,27.4651],[62.8074,27.3401],[62.8325,27.3049],[62.7815,27.2514],[62.783,27.2343],[62.8214,27.2123],[62.8783,27.2171],[62.9517,27.1921],[63.0586,27.2332],[63.1842,27.2414],[63.2992,27.1789],[63.3175,27.1387],[63.2559,27.083],[63.2567,26.9287],[63.2814,26.8746],[63.1921,26.8435],[63.1997,26.738],[63.1692,26.6473],[63.0514,26.6376],[62.9859,26.6533],[62.7787,26.6523],[62.6081,26.585],[62.4345,26.5681],[62.4035,26.5393],[62.306,26.5244],[62.2959,26.4987],[62.3088,26.4767],[62.2826,26.4473],[62.2564,26.446],[62.2913,26.3868],[62.2825,26.3584],[62.1324,26.39],[62.1211,26.3168],[62.0611,26.3154],[61.8479,26.2281],[61.7803,25.8182],[61.7688,25.8018],[61.6892,25.7992],[61.6899,25.7179],[61.7067,25.6863],[61.6807,25.6544],[61.6643,25.3334],[61.6105,25.195],[61.6337,25.2028],[61.6592,25.1869],[61.6982,25.2042],[61.7523,25.1687],[61.7813,25.1903],[61.7831,25.1419],[61.769,25.124],[61.7475,25.1321],[61.7575,25.0983],[61.7397,25.0904],[61.7279,25.0443],[61.7644,25.0328],[61.8406,25.0408],[61.864,25.0784],[61.8594,25.0961],[61.8747,25.1027],[61.9847,25.1096],[62.0984,25.0962],[62.1054,25.1043],[62.0665,25.1548],[62.0735,25.1785],[62.2034,25.2151],[62.2651,25.2048],[62.3149,25.1687],[62.3202,25.1205],[62.269,25.1003],[62.3769,25.0962],[62.3895,25.1048],[62.3394,25.1132],[62.3643,25.178],[62.4118,25.2054],[62.4771,25.2159],[62.4599,25.2297],[62.4738,25.2454],[62.5951,25.2623],[62.8309,25.2462],[63.0071,25.2106],[63.1395,25.2577],[63.4927,25.1982],[63.5039,25.2262],[63.4561,25.2952],[63.4811,25.2844],[63.5356,25.3457],[63.6059,25.3706],[63.758,25.3788],[63.9296,25.3371],[64.0643,25.3283],[64.072,25.3632],[64.0361,25.4061],[64.0208,25.4095],[64.0042,25.3844],[63.9913,25.4099],[63.968,25.4048],[63.9744,25.4234],[64.0058,25.4066],[64.0197,25.4249],[63.9915,25.4264],[64.0287,25.4441],[64.0287,25.465],[64.0473,25.4314],[64.0642,25.4453],[64.1174,25.4545],[64.1243,25.439],[64.1651,25.4533],[64.1381,25.4323],[64.1419,25.4112],[64.0809,25.3978],[64.1175,25.3649],[64.0918,25.3659],[64.0838,25.3294],[64.2233,25.318],[64.2463,25.3325],[64.24,25.307],[64.3405,25.2768],[64.406,25.2383],[64.5436,25.2705],[64.611,25.2166],[64.6045,25.1891],[64.5832,25.1813],[64.5846,25.1594],[64.6623,25.16],[64.7005,25.1866],[64.6402,25.2055],[64.6525,25.2732],[64.7262,25.3167],[64.7927,25.3239],[64.7805,25.3478],[64.8271,25.3189],[64.9953,25.3252],[65.1564,25.3061],[65.2263,25.3172],[65.2514,25.3791],[65.3189,25.3968],[65.3381,25.3805],[65.3711,25.3903],[65.5057,25.3761],[65.5435,25.4199],[65.5178,25.3704],[65.6358,25.3495],[65.773,25.3835],[65.8387,25.4194],[65.9549,25.4132],[66.0144,25.4209],[66.0092,25.4368],[66.0238,25.4437],[66.0391,25.4266],[66.2765,25.4678],[66.36,25.4601],[66.5133,25.4046],[66.5284,25.4158],[66.4928,25.4478],[66.5174,25.4921],[66.4752,25.4996],[66.4265,25.4826],[66.3943,25.5066],[66.3973,25.5216],[66.358,25.5248],[66.3349,25.5532],[66.3088,25.5465],[66.314,25.5377],[66.2848,25.5421],[66.1956,25.489],[66.0919,25.4796],[66.1328,25.5079],[66.1337,25.5443],[66.1901,25.5993],[66.2322,25.5904],[66.2969,25.6239],[66.3105,25.6101],[66.3676,25.6159],[66.3991,25.5835],[66.4454,25.5973],[66.4552,25.6194],[66.4672,25.5699],[66.4799,25.5878],[66.5028,25.5774],[66.5392,25.6442],[66.543,25.6145],[66.5159,25.5635],[66.5289,25.5422],[66.5576,25.5381],[66.56,25.453],[66.5942,25.425],[66.5783,25.4115],[66.5794,25.3728],[66.5553,25.3922],[66.5501,25.3652],[66.6783,25.2711],[66.742,25.1833],[66.7386,25.1422],[66.7041,25.0826],[66.7004,24.9496],[66.6754,24.9236],[66.6869,24.8927],[66.7898,24.9686],[66.9382,25.0294],[67.0078,25.1009],[67.0083,25.1623],[67.0318,25.201],[67.0897,25.2412],[67.1378,25.3152],[67.1633,25.4525],[67.2011,25.4996],[67.244,25.5234],[67.257,25.5657],[67.3,25.5918],[67.3371,25.7061],[67.4131,25.8184],[67.399,25.8828],[67.4264,26.073],[67.3877,26.1361],[67.3595,26.15],[67.2656,26.347],[67.1776,26.4715],[67.1238,26.6531],[67.1265,26.7383],[67.1466,26.7684],[67.1334,26.9404],[67.1606,27.066],[67.1299,27.314],[67.1611,27.3545],[67.1829,27.5323],[67.2291,27.5749],[67.2542,27.6585],[67.3515,27.7492],[67.3942,27.9097],[67.42,27.8927],[67.5494,27.9015],[67.5947,27.9221],[67.7749,27.9433],[67.8124,27.9855],[67.913,27.9943],[67.9644,28.0696],[68.0178,28.092],[68.209,28.2425],[68.3534,28.2848],[68.4052,28.3876],[68.4671,28.4312],[69.3638,28.4456],[69.3219,28.5496],[69.4209,28.5977],[69.5329,28.7731],[69.5254,28.8257],[69.4846,28.8444],[69.4896,28.8916],[69.5812,28.9601],[69.6506,29.0657],[69.7063,29.0897],[69.7501,29.1739],[69.744,29.2364],[69.7665,29.2978],[69.6867,29.2587],[69.6714,29.3052],[69.6403,29.3111],[69.6691,29.3556],[69.6525,29.3891],[69.615,29.4233],[69.5645,29.4091],[69.5658,29.4672],[69.5981,29.5311],[69.5915,29.626],[69.6187,29.64],[69.646,29.6853],[69.7326,29.7189],[69.789,29.7688],[69.8358,29.8615],[69.8925,29.9148],[69.9407,30.036],[69.9797,30.0767],[69.999,30.1825],[70.0762,30.2624],[70.0124,30.2774],[69.9728,30.2535],[69.9841,30.2999],[69.9606,30.2938],[69.9598,30.3174],[69.9934,30.3812],[70.0019,30.4566],[70.0389,30.4955],[70.0856,30.5929],[70.0871,30.693],[70.1035,30.7322],[70.1562,30.7373],[70.1682,30.7747],[70.2126,30.7851],[70.224,30.8405],[70.2672,30.8453],[70.2526,30.8828],[70.2661,31.0191],[70.2948,31.1049],[70.2927,31.1595],[70.2571,31.2281],[70.2718,31.25],[70.2786,31.3975],[70.2608,31.5075],[70.1496,31.4338],[70.1247,31.4283],[70.0958,31.4491],[70.0974,31.4161],[70.0694,31.3877],[70.0531,31.3955],[70.0181,31.5081],[69.9652,31.5164],[69.9397,31.5456],[69.9577,31.7814],[69.9393,31.8497],[69.957,31.8709],[69.9633,31.9368],[69.9319,31.9293],[69.899,31.8884],[69.8547,31.8936],[69.8533,31.9248],[69.8828,31.9782],[69.8,32.0254],[69.854,32.0981]]],[[[63.8507,25.1124],[63.8788,25.1268],[63.8409,25.1183],[63.8507,25.1124]]],[[[64.0834,25.4078],[64.1245,25.4227],[64.065,25.4156],[64.0834,25.4078]]],[[[66.4235,25.5256],[66.4163,25.5558],[66.3953,25.552],[66.3967,25.5379],[66.4235,25.5256]]],[[[66.3495,25.5523],[66.3478,25.5639],[66.3439,25.5635],[66.3495,25.5523]]],[[[66.3798,25.5631],[66.3873,25.5655],[66.3842,25.5685],[66.3798,25.5631]]],[[[66.1955,25.5328],[66.2052,25.5732],[66.1624,25.5407],[66.1955,25.5328]]],[[[66.3788,25.5785],[66.3753,25.5847],[66.3709,25.5899],[66.3788,25.5785]]],[[[66.3562,25.5841],[66.3542,25.5913],[66.351,25.5923],[66.3562,25.5841]]]]}},{"type":"Feature","properties":{"adm1_pcode":"PK3","adm1_name":"Gilgit Baltistan","area_sqkm":69767.33303181},"geometry":{"type":"Polygon","coordinates":[[[74.7898,37.0278],[74.7319,37.032],[74.7063,37.0848],[74.6902,37.0883],[74.5716,37.0339],[74.5584,36.9603],[74.5366,36.9652],[74.5174,36.9989],[74.4205,36.9961],[74.2523,36.9004],[74.152,36.9098],[74.1197,36.8417],[74.085,36.8463],[74.0528,36.8287],[73.9632,36.8375],[73.9355,36.8674],[73.8466,36.8986],[73.8002,36.8897],[73.7846,36.9034],[73.6935,36.9135],[73.6395,36.9033],[73.6964,36.8469],[73.7808,36.8288],[73.7975,36.8033],[73.8403,36.7913],[73.863,36.7483],[73.843,36.7057],[73.7678,36.7213],[73.7011,36.7202],[73.6602,36.7027],[73.5861,36.7074],[73.563,36.729],[73.483,36.7265],[73.4072,36.7515],[73.2477,36.7113],[73.1572,36.723],[73.06,36.6908],[73.048,36.6666],[73.073,36.6053],[73.0355,36.5375],[72.9641,36.4984],[72.9597,36.4712],[72.8752,36.4529],[72.8508,36.3757],[72.7091,36.3033],[72.6769,36.2644],[72.5964,36.2644],[72.5528,36.2314],[72.5439,36.1447],[72.5186,36.0906],[72.5669,36.0075],[72.5128,35.9003],[72.575,35.8458],[72.6769,35.8175],[72.8111,35.8572],[72.9764,35.8339],[73.0925,35.8603],[73.1241,35.8386],[73.1116,35.76],[73.1361,35.7089],[73.2811,35.6139],[73.4144,35.5733],[73.7803,35.5225],[73.8068,35.5041],[73.7019,35.3947],[73.6989,35.3019],[73.7267,35.2214],[73.7811,35.2405],[73.8497,35.2078],[73.9155,35.2094],[74.0082,35.1695],[74.0317,35.1433],[74.095,35.1453],[74.1607,35.0804],[74.2062,35.0924],[74.2486,35.0394],[74.2743,35.0417],[74.2995,35.0674],[74.3751,35.0613],[74.4519,35.1338],[74.4663,35.1106],[74.5098,35.0992],[74.537,35.0656],[74.5285,35.036],[74.5835,35.0016],[74.5647,34.9731],[74.566,34.9075],[74.6,34.9193],[74.6642,34.9074],[74.7057,34.8576],[74.7228,34.8609],[74.7645,34.8129],[74.7824,34.764],[74.8649,34.6799],[74.9105,34.6832],[75.0187,34.6415],[75.1423,34.6624],[75.2497,34.6473],[75.2661,34.6396],[75.2619,34.6109],[75.3778,34.5524],[75.6156,34.5385],[75.7292,34.5162],[75.793,34.5339],[75.9463,34.6312],[75.9918,34.63],[76.0365,34.6703],[76.0744,34.6763],[76.1219,34.6466],[76.1579,34.6434],[76.2601,34.6844],[76.3161,34.7316],[76.3859,34.736],[76.4743,34.7944],[76.5618,34.7583],[76.6818,34.7596],[76.7432,34.8401],[76.7494,34.9266],[76.8111,34.9355],[76.87,34.9724],[76.9704,34.9356],[76.9975,34.9392],[77.0181,35.0385],[77.0768,35.0246],[77.126,35.043],[77.834,35.5021],[77.8141,35.5195],[77.8002,35.4941],[77.755,35.4981],[77.7301,35.4602],[77.6919,35.4495],[77.646,35.4794],[77.637,35.456],[77.5368,35.4825],[77.4384,35.4618],[77.3853,35.4719],[77.3049,35.5413],[77.1929,35.5201],[77.0615,35.5964],[76.9953,35.6119],[76.9641,35.5927],[76.9152,35.6095],[76.8463,35.669],[76.7586,35.6567],[76.7422,35.6887],[76.6958,35.7231],[76.6905,35.7484],[76.5911,35.773],[76.5638,35.8202],[76.5852,35.8413],[76.5772,35.8675],[76.595,35.8967],[76.5736,35.9218],[76.5464,35.9201],[76.5127,35.8818],[76.4689,35.8866],[76.4289,35.8524],[76.3668,35.864],[76.363,35.8249],[76.296,35.8423],[76.1574,35.8252],[76.1438,35.8408],[76.1599,35.9175],[76.1044,35.9892],[76.1011,36.0194],[76.0116,36.0188],[75.9469,36.0711],[75.9336,36.1355],[75.9721,36.1492],[75.9652,36.1596],[76.0135,36.1661],[76.0086,36.2298],[76.062,36.2309],[75.9883,36.3325],[76.0318,36.4097],[76.0108,36.4745],[75.9325,36.5696],[75.9433,36.6009],[75.7494,36.7375],[75.6453,36.7716],[75.5343,36.7736],[75.5291,36.7272],[75.5017,36.7441],[75.4552,36.7213],[75.4204,36.7862],[75.4267,36.8736],[75.3918,36.9101],[75.4103,36.9547],[75.2856,36.9749],[75.2329,36.9654],[75.1652,36.992],[75.1689,37.0141],[75.145,37.0262],[75.0717,37.0056],[75.0294,37.0171],[75.0026,36.9949],[74.9323,36.9831],[74.9359,36.9438],[74.8996,36.9348],[74.8414,37.014],[74.8443,37.0574],[74.804,37.0546],[74.7898,37.0278]]]}},{"type":"Feature","properties":{"adm1_pcode":"PK4","adm1_name":"Islamabad","area_sqkm":901.53277708},"geometry":{"type":"Polygon","coordinates":[[[73.1641,33.8104],[73.1179,33.7864],[73.0274,33.7799],[72.9567,33.7311],[72.8139,33.7014],[72.9142,33.5726],[72.9861,33.6106],[72.9688,33.6315],[73.0018,33.6188],[73.0882,33.6642],[73.1545,33.5784],[73.0869,33.5424],[73.1997,33.4897],[73.2988,33.5913],[73.3021,33.655],[73.3545,33.6625],[73.3894,33.7036],[73.3486,33.7083],[73.2672,33.7758],[73.1641,33.8104]]]}},{"type":"Feature","properties":{"adm1_pcode":"PK5","adm1_name":"Khyber Pakhtunkhwa","area_sqkm":100897.09378361},"geometry":{"type":"Polygon","coordinates":[[[73.663,36.8882],[73.5976,36.9076],[73.5278,36.8856],[73.4031,36.8991],[73.3066,36.8732],[73.2619,36.8903],[73.1441,36.8941],[73.0717,36.889],[73.0268,36.8607],[72.9534,36.8721],[72.9241,36.846],[72.8826,36.8411],[72.6316,36.8484],[72.5454,36.8229],[72.4952,36.7776],[72.4112,36.7767],[72.3026,36.745],[72.2414,36.7535],[72.1969,36.6936],[72.2145,36.6642],[72.1029,36.6485],[72.0968,36.5973],[72.0592,36.5956],[72.0129,36.5677],[71.9353,36.5609],[71.9091,36.5053],[71.8321,36.5055],[71.8186,36.4421],[71.8617,36.4294],[71.8573,36.3994],[71.7958,36.4006],[71.6734,36.4721],[71.636,36.4721],[71.6139,36.4091],[71.5561,36.3691],[71.5687,36.3295],[71.5242,36.3209],[71.5206,36.2997],[71.4416,36.2695],[71.4191,36.2279],[71.3591,36.1987],[71.3474,36.1726],[71.2454,36.1228],[71.2424,36.0927],[71.199,36.0492],[71.2536,35.9971],[71.3767,35.9561],[71.3807,35.9017],[71.4297,35.8818],[71.4899,35.8035],[71.4854,35.7539],[71.5467,35.7202],[71.4995,35.6264],[71.6122,35.5732],[71.5934,35.4975],[71.6507,35.445],[71.5535,35.2963],[71.6767,35.2066],[71.6288,35.1489],[71.5358,35.0904],[71.5301,35.0723],[71.556,35.0281],[71.5176,35.0042],[71.4993,34.9638],[71.3543,34.9117],[71.3099,34.8788],[71.2795,34.805],[71.2463,34.7909],[71.2191,34.7481],[71.1145,34.7105],[71.0957,34.6755],[71.1106,34.63],[71.0871,34.5905],[70.9956,34.5548],[71.0068,34.4611],[71.076,34.3958],[71.1713,34.3583],[71.1221,34.2672],[71.1353,34.2253],[71.1261,34.1624],[71.0728,34.1057],[71.0763,34.0625],[70.9179,34.0098],[70.8849,33.9768],[70.8241,33.9818],[70.7679,33.9549],[70.5939,33.9643],[70.5017,33.9438],[70.2791,33.9803],[70.2388,33.9731],[70.1543,34.0083],[70.1002,34.008],[70.012,34.0486],[69.8975,34.0277],[69.9007,33.9847],[69.8658,33.9559],[69.8657,33.9269],[69.9557,33.8167],[69.9698,33.7626],[69.9918,33.7404],[70.137,33.7151],[70.1493,33.6535],[70.197,33.6336],[70.1736,33.5251],[70.2148,33.4796],[70.2401,33.4734],[70.2585,33.433],[70.2978,33.4262],[70.3235,33.3309],[70.2914,33.3278],[70.2335,33.2688],[70.1557,33.2212],[70.0673,33.2135],[70.0231,33.1433],[69.8755,33.0957],[69.7865,33.1275],[69.7046,33.0905],[69.5801,33.0976],[69.5071,33.029],[69.492,32.9427],[69.5346,32.8664],[69.4639,32.8471],[69.3924,32.7742],[69.4028,32.7492],[69.4412,32.7278],[69.437,32.6862],[69.4512,32.6632],[69.3852,32.5666],[69.2852,32.533],[69.2407,32.4614],[69.2808,32.3564],[69.2728,32.151],[69.3003,31.9919],[69.3209,31.9519],[69.5188,31.9761],[69.5488,31.9561],[69.6292,32.0072],[69.6795,32.0729],[69.854,32.0997],[69.8,32.0254],[69.8828,31.9782],[69.8533,31.9248],[69.8547,31.8936],[69.899,31.8884],[69.9319,31.9293],[69.9633,31.9368],[69.957,31.8709],[69.9393,31.8497],[69.9577,31.7814],[69.9397,31.5456],[69.9652,31.5164],[70.0181,31.5081],[70.0531,31.3955],[70.0694,31.3877],[70.0974,31.4161],[70.0958,31.4491],[70.1247,31.4283],[70.1496,31.4338],[70.2608,31.5075],[70.2786,31.3975],[70.2718,31.25],[70.2571,31.2281],[70.2875,31.1655],[70.4045,31.1998],[70.4502,31.2941],[70.5248,31.3061],[70.5584,31.3402],[70.6751,31.316],[70.7255,31.3377],[70.7747,31.3057],[70.7865,31.3501],[70.8349,31.3818],[70.8425,31.4248],[70.8926,31.4373],[70.8974,31.4841],[70.8693,31.5125],[70.9022,31.5184],[70.8694,31.5472],[70.8994,31.5879],[70.8841,31.6432],[70.9077,31.6821],[70.9429,31.6862],[70.9386,31.7207],[71.0007,31.7799],[71.0355,31.8679],[71.0623,31.883],[71.0632,32.03],[71.0884,32.0395],[71.1136,32.108],[71.1024,32.1332],[71.1122,32.1609],[71.1466,32.1602],[71.173,32.1909],[71.1708,32.248],[71.2182,32.3074],[71.2858,32.3661],[71.3402,32.3741],[71.3271,32.4047],[71.3453,32.4165],[71.3345,32.4265],[71.353,32.4985],[71.3235,32.534],[71.2988,32.5322],[71.3,32.5167],[71.2748,32.5119],[71.2691,32.491],[71.232,32.512],[71.2489,32.5445],[71.1627,32.6011],[71.1478,32.6545],[71.1572,32.6751],[71.134,32.6948],[71.144,32.7224],[71.1056,32.8095],[71.1337,32.811],[71.1439,32.9256],[71.1886,32.9755],[71.3182,33.0167],[71.3175,33.0023],[71.3553,32.9908],[71.4583,33.0211],[71.4761,33.0481],[71.4233,33.0933],[71.4523,33.1302],[71.436,33.181],[71.407,33.1938],[71.416,33.2255],[71.4446,33.2404],[71.4494,33.221],[71.5178,33.1971],[71.5161,33.2172],[71.556,33.2273],[71.6025,33.1842],[71.603,33.1333],[71.6338,33.0881],[71.7185,33.0598],[71.7139,33.112],[71.7479,33.1441],[71.7614,33.1855],[71.7085,33.2554],[71.7051,33.2849],[71.7304,33.3159],[71.7206,33.3511],[71.8324,33.4091],[71.8572,33.4045],[71.8694,33.45],[71.9535,33.514],[71.9671,33.5366],[71.952,33.5705],[71.9784,33.5868],[71.9822,33.663],[72.0366,33.7518],[72.0763,33.7647],[72.0718,33.7827],[72.0861,33.7876],[72.2437,33.7617],[72.2338,33.8998],[72.3219,33.9479],[72.375,33.9574],[72.4025,33.9777],[72.4052,34.0066],[72.4488,33.9915],[72.5496,33.9982],[72.5538,33.9555],[72.6069,33.9528],[72.6529,33.9307],[72.6058,33.8821],[72.6338,33.8802],[72.6441,33.8575],[72.7068,33.8805],[72.7051,33.9057],[72.7345,33.9063],[72.7239,33.9197],[72.7653,33.9522],[72.7892,33.924],[72.7701,33.9153],[72.7773,33.9032],[72.7942,33.8871],[72.8327,33.8873],[72.8361,33.8453],[72.818,33.8445],[72.8226,33.8276],[72.8718,33.8259],[72.8554,33.7971],[72.8302,33.7909],[72.8294,33.7633],[72.8887,33.7664],[72.8887,33.7513],[72.9239,33.7456],[72.9164,33.7294],[72.9448,33.7295],[73.012,33.7581],[73.0274,33.7799],[73.1179,33.7864],[73.1526,33.811],[73.228,33.8201],[73.2539,33.8447],[73.3,33.8456],[73.3466,33.9187],[73.3822,33.9418],[73.3787,33.9623],[73.4041,33.9758],[73.4236,33.9556],[73.4719,34.0167],[73.512,34.0177],[73.4647,34.2753],[73.4142,34.3161],[73.3992,34.3575],[73.4428,34.555],[73.4647,34.5719],[73.5817,34.5878],[73.6411,34.5669],[73.6744,34.6458],[73.6636,34.6944],[73.7036,34.7247],[73.7264,34.7753],[73.8339,34.8269],[73.9078,34.8267],[73.9864,34.8705],[74.0516,34.9556],[74.0558,34.9961],[74.0895,35.0241],[74.0622,35.0605],[74.0658,35.09],[74.1274,35.1248],[74.0803,35.1511],[74.0317,35.1433],[74.0082,35.1695],[73.9155,35.2094],[73.8497,35.2078],[73.7939,35.2392],[73.7267,35.2214],[73.6989,35.3019],[73.7019,35.3947],[73.8068,35.5041],[73.7803,35.5225],[73.4144,35.5733],[73.2811,35.6139],[73.1361,35.7089],[73.1116,35.76],[73.1241,35.8386],[73.0925,35.8603],[72.9764,35.8339],[72.8111,35.8572],[72.6769,35.8175],[72.5703,35.8486],[72.5491,35.8811],[72.5128,35.9003],[72.5669,36.0075],[72.5186,36.0906],[72.5439,36.1447],[72.5403,36.2025],[72.5672,36.2483],[72.6141,36.2672],[72.6769,36.2644],[72.7091,36.3033],[72.8508,36.3757],[72.8752,36.4529],[72.9597,36.4712],[72.9641,36.4984],[73.0382,36.5405],[73.073,36.6053],[73.048,36.6666],[73.06,36.6908],[73.1572,36.723],[73.2477,36.7113],[73.4072,36.7515],[73.483,36.7265],[73.563,36.729],[73.5861,36.7074],[73.6602,36.7027],[73.7069,36.7207],[73.8547,36.7138],[73.863,36.7483],[73.8403,36.7913],[73.7975,36.8033],[73.7808,36.8288],[73.6964,36.8469],[73.663,36.8882]]]}},{"type":"Feature","properties":{"adm1_pcode":"PK6","adm1_name":"Punjab","area_sqkm":205401.42693871},"geometry":{"type":"MultiPolygon","coordinates":[[[[73.5009,34.0172],[73.4719,34.0167],[73.4236,33.9556],[73.4041,33.9758],[73.3787,33.9623],[73.3822,33.9418],[73.3466,33.9187],[73.3,33.8456],[73.2539,33.8447],[73.2301,33.821],[73.1685,33.8045],[73.2614,33.7787],[73.3472,33.709],[73.3894,33.7036],[73.3545,33.6625],[73.3021,33.655],[73.2988,33.5913],[73.1997,33.4897],[73.0869,33.5424],[73.1545,33.5784],[73.0882,33.6642],[73.0018,33.6188],[72.9688,33.6315],[72.9861,33.6106],[72.9142,33.5726],[72.8139,33.7014],[72.9158,33.7291],[72.9239,33.7456],[72.8887,33.7513],[72.8887,33.7664],[72.8294,33.7633],[72.8302,33.7909],[72.8554,33.7971],[72.8718,33.8259],[72.8226,33.8276],[72.818,33.8445],[72.8361,33.8453],[72.8327,33.8873],[72.7942,33.8871],[72.7773,33.9032],[72.7824,33.9418],[72.7623,33.9537],[72.7239,33.9197],[72.7345,33.9063],[72.7051,33.9057],[72.7068,33.8805],[72.6441,33.8575],[72.6338,33.8802],[72.6058,33.8821],[72.6529,33.9307],[72.6069,33.9528],[72.5538,33.9555],[72.5496,33.9982],[72.4488,33.9915],[72.4038,34.006],[72.4025,33.9777],[72.375,33.9574],[72.3219,33.9479],[72.2338,33.8998],[72.2437,33.7617],[72.0861,33.7876],[72.0718,33.7827],[72.0763,33.7647],[72.0366,33.7518],[71.9822,33.663],[71.9784,33.5868],[71.952,33.5705],[71.9671,33.5366],[71.9535,33.514],[71.8694,33.45],[71.8572,33.4045],[71.8324,33.4091],[71.7206,33.3511],[71.7304,33.3159],[71.7051,33.2849],[71.7085,33.2554],[71.7614,33.1855],[71.7479,33.1441],[71.7139,33.112],[71.7185,33.0598],[71.6338,33.0881],[71.603,33.1333],[71.6025,33.1842],[71.556,33.2273],[71.5161,33.2172],[71.5178,33.1971],[71.4494,33.221],[71.4372,33.2399],[71.407,33.1938],[71.436,33.181],[71.4523,33.1302],[71.4279,33.0828],[71.4761,33.0481],[71.4563,33.0188],[71.3553,32.9908],[71.3175,33.0023],[71.3182,33.0167],[71.2377,32.997],[71.1689,32.9634],[71.1439,32.9256],[71.1337,32.811],[71.1056,32.8095],[71.144,32.7224],[71.134,32.6948],[71.1572,32.6751],[71.1478,32.6545],[71.1627,32.6011],[71.2489,32.5445],[71.232,32.512],[71.2568,32.4919],[71.318,32.5344],[71.353,32.4985],[71.3345,32.4265],[71.3453,32.4165],[71.3271,32.4047],[71.3402,32.3741],[71.2858,32.3661],[71.2182,32.3074],[71.1708,32.248],[71.173,32.1909],[71.1466,32.1602],[71.1122,32.1609],[71.1024,32.1332],[71.1136,32.108],[71.0884,32.0395],[71.0632,32.03],[71.0623,31.883],[71.0355,31.8679],[71.0007,31.7799],[70.9386,31.7207],[70.9429,31.6862],[70.9077,31.6821],[70.8841,31.6432],[70.8994,31.5879],[70.8694,31.5472],[70.9022,31.5184],[70.8693,31.5125],[70.8974,31.4841],[70.8926,31.4373],[70.8425,31.4248],[70.8349,31.3818],[70.7865,31.3501],[70.7747,31.3057],[70.7255,31.3377],[70.6751,31.316],[70.5584,31.3402],[70.5248,31.3061],[70.4502,31.2941],[70.4045,31.1998],[70.2875,31.1655],[70.2944,31.0952],[70.2684,31.0338],[70.2526,30.8828],[70.2672,30.8453],[70.224,30.8405],[70.2126,30.7851],[70.1682,30.7747],[70.1562,30.7373],[70.1035,30.7322],[70.0871,30.693],[70.0856,30.5929],[70.0389,30.4955],[70.0019,30.4566],[69.9934,30.3812],[69.9598,30.3174],[69.9606,30.2938],[69.9841,30.2999],[69.9728,30.2535],[70.0124,30.2774],[70.0762,30.2624],[69.999,30.1825],[69.9797,30.0767],[69.9407,30.036],[69.8925,29.9148],[69.8358,29.8615],[69.789,29.7688],[69.7326,29.7189],[69.646,29.6853],[69.6187,29.64],[69.5915,29.626],[69.5981,29.5311],[69.5658,29.4672],[69.5645,29.4091],[69.615,29.4233],[69.6525,29.3891],[69.6691,29.3556],[69.6403,29.3111],[69.6714,29.3052],[69.6867,29.2587],[69.7665,29.2978],[69.744,29.2364],[69.7501,29.1739],[69.7063,29.0897],[69.6506,29.0657],[69.5812,28.9601],[69.4928,28.8965],[69.4832,28.8485],[69.5254,28.8257],[69.5329,28.7731],[69.4209,28.5977],[69.3219,28.5496],[69.3638,28.4456],[69.4165,28.4492],[69.4467,28.4778],[69.5213,28.4845],[69.6245,28.4675],[69.6059,28.4395],[69.7261,28.4216],[69.7619,28.3847],[69.7943,28.3799],[69.8207,28.3396],[69.8155,28.2772],[69.8367,28.2688],[69.8316,28.2411],[69.8576,28.1971],[69.8377,28.1697],[69.8451,28.1332],[69.9917,27.9444],[70.0692,27.8954],[70.1805,27.8549],[70.3662,28.0083],[70.5303,28.0325],[70.6607,27.9305],[70.6784,27.8391],[70.7577,27.7172],[70.8853,27.7058],[71.2441,27.8494],[71.6749,27.8855],[71.8996,27.9642],[71.9223,28.114],[71.992,28.2036],[72.1844,28.358],[72.302,28.6648],[72.3962,28.7747],[72.7302,28.9501],[72.9444,29.0341],[73.0009,29.1509],[73.0966,29.2554],[73.2748,29.5562],[73.3965,29.939],[73.5782,30.0101],[73.8039,30.0699],[73.9653,30.1913],[73.9437,30.3059],[73.8713,30.3686],[73.9034,30.4168],[73.9279,30.4209],[73.9353,30.463],[73.9627,30.4576],[73.9837,30.5005],[74.032,30.5358],[74.0665,30.5202],[74.0776,30.5294],[74.1042,30.6129],[74.1861,30.6594],[74.2322,30.7196],[74.2818,30.7302],[74.2621,30.7681],[74.2962,30.7785],[74.3196,30.8436],[74.363,30.8458],[74.3655,30.8854],[74.4161,30.906],[74.4706,30.966],[74.5022,30.9648],[74.5485,30.9928],[74.5584,31.0675],[74.6391,31.0211],[74.6564,31.053],[74.6857,31.0615],[74.6644,31.1067],[74.6176,31.119],[74.5741,31.11],[74.5359,31.1542],[74.5503,31.2947],[74.6411,31.4647],[74.6117,31.5062],[74.5785,31.6234],[74.5173,31.7229],[74.5171,31.7604],[74.5455,31.7576],[74.5438,31.8223],[74.573,31.823],[74.7033,31.9249],[74.7092,31.9579],[74.7364,31.9371],[74.8045,31.9469],[74.8317,32.0],[74.9201,32.0563],[74.9603,32.055],[75.0049,32.0288],[75.0736,32.0628],[75.1719,32.0661],[75.2119,32.1191],[75.2334,32.0844],[75.3142,32.1592],[75.3228,32.2013],[75.3748,32.2243],[75.3808,32.265],[75.3399,32.2886],[75.3304,32.3317],[75.2315,32.3992],[75.1955,32.4053],[75.1885,32.4245],[75.1279,32.4212],[75.0826,32.48],[75.0302,32.4918],[74.9731,32.4479],[74.8353,32.4962],[74.7477,32.4792],[74.6867,32.4931],[74.6805,32.5382],[74.6524,32.5602],[74.6422,32.611],[74.6762,32.658],[74.6501,32.7184],[74.697,32.8397],[74.642,32.8229],[74.6415,32.7919],[74.6147,32.7577],[74.5315,32.7407],[74.4544,32.7931],[74.3717,32.7711],[74.3328,32.8156],[74.0028,32.9517],[73.9211,33.0342],[73.8058,33.0089],[73.7503,33.053],[73.6283,33.0947],[73.6266,33.128],[73.6686,33.158],[73.6699,33.1916],[73.6671,33.2153],[73.6412,33.2161],[73.6428,33.2323],[73.6232,33.244],[73.5986,33.3181],[73.6072,33.3333],[73.5847,33.3392],[73.5705,33.3722],[73.5972,33.4392],[73.6266,33.4597],[73.6083,33.4919],[73.6317,33.5264],[73.6269,33.5689],[73.5689,33.6242],[73.5739,33.6644],[73.5989,33.6986],[73.5925,33.7469],[73.5667,33.7889],[73.5855,33.8819],[73.5009,34.0172]]],[[[69.5542,28.1238],[69.5818,28.1982],[69.5363,28.2094],[69.4751,28.2648],[69.4667,28.2114],[69.5261,28.1681],[69.5332,28.1273],[69.5542,28.1238]]],[[[69.598,28.348],[69.5592,28.3951],[69.5336,28.3888],[69.5917,28.2884],[69.6045,28.2205],[69.6689,28.2225],[69.6726,28.2501],[69.694,28.2592],[69.7224,28.2358],[69.7432,28.2413],[69.7578,28.3115],[69.7079,28.2922],[69.6499,28.3463],[69.598,28.348]]]]}},{"type":"Feature","properties":{"adm1_pcode":"PK7","adm1_name":"Sindh","area_sqkm":141028.29025662},"geometry":{"type":"MultiPolygon","coordinates":[[[[69.61,28.4488],[69.6245,28.4675],[69.5044,28.485],[69.4372,28.4753],[69.4165,28.4492],[69.3941,28.4464],[68.4671,28.4312],[68.4052,28.3876],[68.3534,28.2848],[68.209,28.2425],[68.0178,28.092],[67.9644,28.0696],[67.913,27.9943],[67.8124,27.9855],[67.7749,27.9433],[67.5947,27.9221],[67.5494,27.9015],[67.42,27.8927],[67.3942,27.9097],[67.3515,27.7492],[67.2542,27.6585],[67.2291,27.5749],[67.1829,27.5323],[67.1611,27.3545],[67.126,27.2958],[67.1606,27.066],[67.1334,26.9404],[67.1466,26.7684],[67.1265,26.7383],[67.1238,26.6531],[67.1776,26.4715],[67.2656,26.347],[67.3595,26.15],[67.3877,26.1361],[67.4264,26.073],[67.399,25.8828],[67.4131,25.8184],[67.3371,25.7061],[67.3,25.5918],[67.257,25.5657],[67.244,25.5234],[67.2011,25.4996],[67.1633,25.4525],[67.1378,25.3152],[67.0897,25.2412],[67.0318,25.201],[67.0083,25.1623],[67.0078,25.1009],[66.9231,25.0177],[66.8574,25.0025],[66.7726,24.9569],[66.6514,24.8294],[66.6833,24.8214],[66.7562,24.8438],[66.8191,24.8344],[66.862,24.8569],[66.9792,24.7918],[66.9578,24.8259],[66.9122,24.8447],[66.9538,24.861],[66.9825,24.8579],[66.9627,24.825],[66.9736,24.8306],[66.9758,24.8108],[67.0217,24.8083],[67.0931,24.7569],[67.0907,24.7921],[67.1023,24.7781],[67.1049,24.7976],[67.1224,24.7788],[67.1547,24.7937],[67.174,24.781],[67.2199,24.8141],[67.2456,24.7849],[67.2746,24.7903],[67.3296,24.7712],[67.3755,24.7834],[67.4637,24.7775],[67.4681,24.7538],[67.4528,24.7761],[67.3493,24.7629],[67.3515,24.7423],[67.3932,24.7046],[67.4325,24.6982],[67.4203,24.6727],[67.4416,24.648],[67.4532,24.6538],[67.4405,24.6404],[67.4143,24.6494],[67.4069,24.6358],[67.3837,24.6377],[67.371,24.6081],[67.3231,24.5906],[67.3202,24.5757],[67.299,24.5815],[67.3152,24.5589],[67.304,24.5533],[67.3233,24.5491],[67.4071,24.5894],[67.4171,24.5902],[67.4396,24.5746],[67.4136,24.5857],[67.3571,24.5504],[67.3684,24.536],[67.3987,24.5468],[67.3975,24.5246],[67.3702,24.5304],[67.3523,24.4797],[67.3282,24.4852],[67.3258,24.4653],[67.3094,24.4589],[67.3743,24.4721],[67.4022,24.493],[67.3919,24.5161],[67.412,24.5215],[67.4177,24.4758],[67.436,24.4797],[67.454,24.4622],[67.395,24.4834],[67.3604,24.4608],[67.3834,24.4544],[67.3707,24.4367],[67.3902,24.4501],[67.4727,24.4269],[67.4169,24.4367],[67.3491,24.4005],[67.3605,24.3877],[67.4158,24.4014],[67.4278,24.3918],[67.4229,24.3603],[67.4177,24.3865],[67.369,24.3857],[67.3665,24.351],[67.4344,24.3227],[67.4566,24.3422],[67.4872,24.3263],[67.5124,24.3526],[67.5291,24.3345],[67.5146,24.3424],[67.4906,24.3218],[67.449,24.3322],[67.4421,24.3161],[67.4109,24.3113],[67.3466,24.3428],[67.3386,24.3323],[67.3596,24.2906],[67.3299,24.3339],[67.2954,24.301],[67.3259,24.2449],[67.3585,24.2837],[67.3934,24.2874],[67.3613,24.2757],[67.3501,24.2542],[67.4143,24.234],[67.4212,24.2167],[67.4317,24.2472],[67.4281,24.2125],[67.4168,24.2109],[67.4125,24.2296],[67.3625,24.2386],[67.342,24.2352],[67.3344,24.2088],[67.3545,24.1828],[67.3347,24.1763],[67.3453,24.1558],[67.3828,24.1326],[67.4245,24.1302],[67.3626,24.1324],[67.3921,24.0478],[67.4088,24.084],[67.4431,24.1202],[67.4489,24.1168],[67.4184,24.0883],[67.438,24.0636],[67.4092,24.0392],[67.4218,24.0024],[67.4083,24.0],[67.4365,23.9907],[67.4225,23.9449],[67.5008,23.9698],[67.4661,23.9454],[67.4855,23.9374],[67.491,23.9139],[67.4661,23.9215],[67.4655,23.9066],[67.5335,23.8746],[67.5355,23.893],[67.5651,23.8683],[67.5762,23.889],[67.5834,23.8394],[67.6254,23.8429],[67.6269,23.8088],[67.652,23.7945],[67.7502,23.8015],[67.709,23.8562],[67.8274,23.8136],[67.8456,23.9092],[67.8939,23.9751],[67.9027,23.9647],[67.8653,23.9016],[67.872,23.8587],[67.9298,23.829],[67.9202,23.8517],[67.9963,23.7867],[68.0446,23.7949],[68.0277,23.8693],[68.042,23.9119],[68.0553,23.903],[68.053,23.8538],[68.076,23.8332],[68.1044,23.8432],[68.1035,23.8555],[68.1421,23.8397],[68.136,23.8695],[68.1889,23.8501],[68.1856,23.8863],[68.2378,23.9002],[68.2789,23.9386],[68.3259,23.922],[68.3349,23.9654],[68.3742,23.9832],[68.3849,23.9642],[68.7492,23.962],[68.7642,24.2843],[68.8264,24.3084],[68.8525,24.2057],[68.8736,24.2143],[68.8973,24.2769],[68.9267,24.2939],[68.9706,24.2375],[69.0005,24.2259],[69.0929,24.2691],[69.1998,24.2352],[69.3103,24.2767],[69.5042,24.263],[69.5901,24.2868],[69.7246,24.1751],[69.9787,24.165],[70.0241,24.1694],[70.0593,24.1928],[70.119,24.2907],[70.5601,24.4186],[70.5961,24.4003],[70.5614,24.3584],[70.5874,24.3101],[70.5723,24.2936],[70.5878,24.2854],[70.5742,24.2523],[70.6553,24.2251],[70.7258,24.2209],[70.8058,24.2227],[70.8941,24.2571],[70.9041,24.2651],[70.8658,24.2843],[70.8727,24.3049],[70.9809,24.3634],[71.0382,24.3561],[71.1244,24.4094],[71.1074,24.4332],[71.0203,24.4333],[71.0007,24.4489],[70.9894,24.6032],[71.0081,24.6357],[71.065,24.6626],[71.0861,24.6934],[70.9556,24.9017],[70.9179,24.9864],[70.8812,25.1459],[70.7525,25.2717],[70.7372,25.3257],[70.6659,25.396],[70.6724,25.6715],[70.6593,25.7015],[70.6048,25.7185],[70.5265,25.6885],[70.3746,25.6813],[70.2754,25.7113],[70.0961,25.9443],[70.0826,26.0739],[70.1452,26.1662],[70.1727,26.2451],[70.1646,26.2909],[70.1839,26.4868],[70.1677,26.5507],[70.0662,26.5993],[69.8793,26.5811],[69.8154,26.5922],[69.7219,26.6538],[69.5154,26.7401],[69.4875,26.7937],[69.5132,27.0169],[69.5781,27.1655],[69.862,27.4028],[69.9362,27.5021],[70.0163,27.556],[70.1078,27.7669],[70.1805,27.8549],[70.0008,27.9374],[69.8788,28.0802],[69.8446,28.1343],[69.8377,28.1697],[69.8576,28.1971],[69.8316,28.2411],[69.8367,28.2688],[69.8155,28.2772],[69.8129,28.3619],[69.7619,28.3847],[69.7309,28.4197],[69.627,28.4321],[69.61,28.4488]],[[69.5958,28.2665],[69.5335,28.3808],[69.5399,28.3934],[69.5592,28.3951],[69.588,28.3493],[69.6499,28.3463],[69.7026,28.2938],[69.7578,28.3115],[69.7328,28.2347],[69.694,28.2592],[69.6726,28.2501],[69.6689,28.2225],[69.6045,28.2205],[69.5958,28.2665]],[[69.4772,28.2639],[69.5363,28.2094],[69.5818,28.1982],[69.5542,28.1238],[69.5332,28.1273],[69.5261,28.1681],[69.4667,28.2114],[69.4772,28.2639]]],[[[68.1858,23.8374],[68.1674,23.8444],[68.1729,23.8229],[68.1551,23.8173],[68.1177,23.8314],[68.091,23.8118],[68.074,23.7953],[68.0705,23.7478],[68.034,23.7076],[68.0571,23.7166],[68.1074,23.6977],[68.0915,23.7185],[68.1034,23.727],[68.1309,23.695],[68.1546,23.7022],[68.1483,23.7247],[68.19,23.7806],[68.1858,23.8374]]],[[[67.424,23.9778],[67.391,23.9794],[67.4094,23.9572],[67.424,23.9778]]],[[[67.4223,24.0652],[67.4152,24.0788],[67.4105,24.0805],[67.4099,24.0625],[67.4223,24.0652]]],[[[67.3578,24.3574],[67.3573,24.3818],[67.3557,24.3838],[67.3371,24.3642],[67.3578,24.3574]]],[[[67.3154,24.3647],[67.3304,24.3842],[67.3087,24.3785],[67.3154,24.3647]]],[[[67.3742,24.4232],[67.3927,24.4328],[67.3719,24.4294],[67.3742,24.4232]]],[[[67.3653,24.4294],[67.3104,24.428],[67.34,24.4177],[67.3086,24.4156],[67.3054,24.3942],[67.3387,24.3912],[67.3416,24.4159],[67.3632,24.4118],[67.3653,24.4294]]],[[[67.3706,24.4549],[67.3085,24.4518],[67.2966,24.4418],[67.3059,24.432],[67.3706,24.4549]]],[[[67.321,24.4697],[67.329,24.4923],[67.3236,24.4969],[67.31,24.4829],[67.321,24.4697]]],[[[67.3143,24.5079],[67.3466,24.4983],[67.3191,24.5195],[67.3143,24.5079]]],[[[67.2926,24.5205],[67.2675,24.5186],[67.2746,24.4961],[67.2567,24.4769],[67.3027,24.471],[67.3128,24.4999],[67.2926,24.5205]]],[[[67.3618,24.5287],[67.32,24.5467],[67.2934,24.5293],[67.3043,24.5176],[67.3218,24.5255],[67.3505,24.5024],[67.3618,24.5287]]],[[[67.2858,24.581],[67.2242,24.576],[67.2178,24.5522],[67.2405,24.5284],[67.2499,24.5383],[67.2732,24.5249],[67.3029,24.5478],[67.2858,24.581]]],[[[67.3006,24.5926],[67.3093,24.5925],[67.3086,24.6039],[67.3006,24.5926]]],[[[67.3398,24.6175],[67.3491,24.6178],[67.3479,24.6213],[67.3398,24.6175]]],[[[67.3345,24.6129],[67.3165,24.634],[67.2961,24.6265],[67.2933,24.5865],[67.308,24.6127],[67.3177,24.5827],[67.3345,24.6129]]],[[[67.374,24.6299],[67.3556,24.6445],[67.3267,24.63],[67.3622,24.6155],[67.374,24.6299]]],[[[67.2986,24.6662],[67.281,24.6615],[67.2839,24.6348],[67.3054,24.6397],[67.2986,24.6662]]],[[[67.3649,24.6521],[67.3671,24.667],[67.3433,24.6548],[67.3447,24.6498],[67.3649,24.6521]]],[[[67.3449,24.6623],[67.3343,24.6766],[67.3199,24.6586],[67.3066,24.6596],[67.3243,24.6406],[67.3449,24.6623]]],[[[67.237,24.6633],[67.1831,24.6765],[67.1715,24.6634],[67.1793,24.6284],[67.22,24.6389],[67.2196,24.6208],[67.2655,24.5983],[67.2818,24.6304],[67.237,24.6633]]],[[[67.316,24.6635],[67.301,24.6859],[67.2911,24.6875],[67.316,24.6635]]],[[[67.1159,24.6769],[67.1334,24.6779],[67.1158,24.6905],[67.1159,24.6769]]],[[[67.4152,24.6744],[67.4257,24.6969],[67.3393,24.682],[67.3699,24.6707],[67.3899,24.6492],[67.412,24.6574],[67.4357,24.6453],[67.4152,24.6744]]],[[[67.2457,24.6703],[67.2199,24.6909],[67.2122,24.7168],[67.1878,24.6946],[67.2222,24.6678],[67.2457,24.6703]]],[[[67.3253,24.7281],[67.2949,24.736],[67.2545,24.7063],[67.2173,24.7161],[67.2481,24.6771],[67.2723,24.6789],[67.271,24.6536],[67.2725,24.6681],[67.295,24.6711],[67.2873,24.6917],[67.3272,24.677],[67.3403,24.6922],[67.3915,24.6966],[67.3465,24.7355],[67.3253,24.7281]]],[[[67.1371,24.7553],[67.113,24.7399],[67.1414,24.6901],[67.1525,24.7354],[67.1371,24.7553]]],[[[67.1928,24.7053],[67.1992,24.7243],[67.2482,24.7424],[67.2414,24.7576],[67.1788,24.7357],[67.1928,24.7053]]],[[[67.3412,24.7601],[67.2857,24.7662],[67.2352,24.7209],[67.2504,24.7126],[67.3107,24.7466],[67.326,24.7352],[67.3412,24.7601]]],[[[67.2859,24.7823],[67.2711,24.7862],[67.2367,24.7796],[67.2643,24.7511],[67.2859,24.7823]]],[[[67.2151,24.7933],[67.1878,24.7729],[67.1652,24.7763],[67.1645,24.7607],[67.1825,24.7513],[67.227,24.7761],[67.2151,24.7933]]],[[[67.2251,24.7943],[67.2264,24.8008],[67.2118,24.8053],[67.2251,24.7943]]],[[[66.6158,24.8871],[66.6175,24.8999],[66.6018,24.9031],[66.5961,24.8909],[66.6158,24.8871]]]]}}]}